NORAD_CAT_ID,OBJECT_NAME,OBJECT_TYPE,EPOCH,MEAN_MOTION,ECCENTRICITY,INCLINATION,RA_OF_ASC_NODE,ARG_OF_PERICENTER,MEAN_ANOMALY,BSTAR,MEAN_MOTION_DOT,MEAN_MOTION_DDOT,TLE_LINE0,TLE_LINE1,TLE_LINE2,SEMIMAJOR_AXIS,PERIOD,APOGEE,PERIGEE,DECAYED
52276.0,STARLINK-3778,PAYLOAD,2022-10-29 04:14:23,15.08857453,0.0001696,53.2181,219.6465,62.3019,297.8145,1.9738e-05,2.6e-07,0.0,0 STARLINK-3778,1 52276U 22041R   22302.17665789  .00000026  00000-0  19738-4 0  9999,2 52276  53.2181 219.6465 0001696  62.3019 297.8145 15.08857453 30274,6917.8269999999975,95.436,540.865,538.519,0.0
52276.0,STARLINK-3778,PAYLOAD,2022-10-30 00:54:24,15.08843376,0.0001841999999999,53.2187,215.7823,56.61,303.5068,1.8345e-05,4e-08,0.0,0 STARLINK-3778,1 52276U 22041R   22303.03778071  .00000004  00000-0  18345-4 0  9993,2 52276  53.2187 215.7823 0001842  56.6100 303.5068 15.08843376 29181,6917.87,95.437,541.009,538.461,0.0
52276.0,STARLINK-3778,PAYLOAD,2022-10-30 21:34:25,15.08838016,0.0001794,53.219,211.9189,53.6764,306.4393,3.9925e-06,-2.25e-06,0.0,0 STARLINK-3778,1 52276U 22041R   22303.89890428 -.00000225  00000-0  39925-5 0  9992,2 52276  53.2190 211.9189 0001794  53.6764 306.4393 15.08838016 29310,6917.886,95.438,540.993,538.51,0.0
52276.0,STARLINK-3778,PAYLOAD,2022-10-31 03:55:58,15.08831548,0.0002019,53.2183,210.7283,47.8741,312.2423,-7.1843e-05,-1.431e-05,0.0,0 STARLINK-3778,1 52276U 22041R   22304.16386906 -.00001431  00000-0 -71843-4 0  9999,2 52276  53.2183 210.7283 0002019  47.8741 312.2423 15.08831548 29351,6917.906,95.438,541.168,538.374,0.0
52276.0,STARLINK-3778,PAYLOAD,2022-11-01 03:46:45,15.08837555,0.0001872,53.2183,206.2679,47.3422,312.7727,3.9713e-05,3.44e-06,0.0,0 STARLINK-3778,1 52276U 22041R   22305.15747021  .00000344  00000-0  39713-4 0  9998,2 52276  53.2183 206.2679 0001872  47.3422 312.7727 15.08837555 29500,6917.888000000001,95.438,541.048,538.4580000000002,0.0
52276.0,STARLINK-3778,PAYLOAD,2022-11-02 09:59:05,15.08830576,0.0001896,53.2181,200.6184,48.9007,311.2148,0.0001416999999999,1.967e-05,0.0,0 STARLINK-3778,1 52276U 22041R   22306.41603787  .00001967  00000-0  14170-3 0  9999,2 52276  53.2181 200.6184 0001896  48.9007 311.2148 15.08830576 30913,6917.909000000002,95.438,541.086,538.4630000000002,0.0
52276.0,STARLINK-3778,PAYLOAD,2022-11-03 01:52:58,15.08826811,0.0001911,53.218,197.6452,49.1203,310.9955,-5.8998e-05,-1.227e-05,0.0,0 STARLINK-3778,1 52276U 22041R   22307.07845049 -.00001227  00000-0 -58998-4 0  9999,2 52276  53.2180 197.6452 0001911  49.1203 310.9955 15.08826811 31015,6917.920999999999,95.438,541.1080000000002,538.464,0.0
52276.0,STARLINK-3778,PAYLOAD,2022-11-03 09:49:52,15.08839419,0.0001992,53.2183,196.1585,51.5817,308.5353,5.1562e-05,5.33e-06,0.0,0 STARLINK-3778,1 52276U 22041R   22307.40964112  .00000533  00000-0  51562-4 0  9996,2 52276  53.2183 196.1585 0001992  51.5817 308.5353 15.08839419 31064,6917.882,95.438,541.125,538.369,0.0
52276.0,STARLINK-3778,PAYLOAD,2022-11-03 17:46:48,15.08846351,0.0001853,53.2174,194.6719,48.3468,311.7682,8.4743e-05,1.061e-05,0.0,0 STARLINK-3778,1 52276U 22041R   22307.74083632  .00001061  00000-0  84743-4 0  9996,2 52276  53.2174 194.6719 0001853  48.3468 311.7682 15.08846351 29890,6917.861,95.437,541.008,538.444,0.0
52276.0,STARLINK-3778,PAYLOAD,2022-11-04 09:40:39,15.08847952,0.0002122,53.2167,191.6982,54.1234,305.9955,0.00024033,3.54e-05,0.0,0 STARLINK-3778,1 52276U 22041R   22308.40323501  .00003540  00000-0  24033-3 0  9991,2 52276  53.2167 191.6982 0002122  54.1234 305.9955 15.08847952 31212,6917.856,95.437,541.189,538.253,0.0
52276.0,STARLINK-3778,PAYLOAD,2022-11-04 16:02:11,15.08848489,0.000202,53.2165,190.5084,52.9637,307.154,0.0003699,5.605e-05,0.0,0 STARLINK-3778,1 52276U 22041R   22308.66819432  .00005605  00000-0  36990-3 0  9991,2 52276  53.2165 190.5084 0002020  52.9637 307.1540 15.08848489 30030,6917.854,95.437,541.117,538.322,0.0
52276.0,STARLINK-3778,PAYLOAD,2022-11-05 01:34:30,15.08848682,0.0002002,53.2172,188.7252,48.9056,311.2109,0.00019895,2.88e-05,0.0,0 STARLINK-3778,1 52276U 22041R   22309.06563231  .00002880  00000-0  19895-3 0  9996,2 52276  53.2172 188.7252 0002002  48.9056 311.2109 15.08848682 30092,6917.854,95.437,541.104,538.3340000000002,0.0
52276.0,STARLINK-3778,PAYLOAD,2022-11-05 15:52:58,15.08845422,0.0002064,53.217,186.0493,48.1794,311.9374,3.0591e-05,1.99e-06,0.0,0 STARLINK-3778,1 52276U 22041R   22309.66179258  .00000199  00000-0  30591-4 0  9992,2 52276  53.2170 186.0493 0002064  48.1794 311.9374 15.08845422 31403,6917.864000000001,95.437,541.1569999999998,538.3009999999998,0.0
52276.0,STARLINK-3778,PAYLOAD,2022-11-06 01:25:18,15.08842486,0.0001922,53.218,184.2627,72.4729,287.6473,-9.2481e-05,-1.76e-05,0.0,0 STARLINK-3778,1 52276U 22041R   22310.05924228 -.00001760  00000-0 -92481-4 0  9995,2 52276  53.2180 184.2627 0001922  72.4729 287.6473 15.08842486 31465,6917.873000000001,95.437,541.067,538.408,0.0
52276.0,STARLINK-3778,PAYLOAD,2022-11-06 09:22:13,15.08842406,0.0001842,53.2176,182.7761,54.7389,305.3775,0.00011159,1.488e-05,0.0,0 STARLINK-3778,1 52276U 22041R   22310.39043911  .00001488  00000-0  11159-3 0  9990,2 52276  53.2176 182.7761 0001842  54.7389 305.3775 15.08842406 30293,6917.873000000001,95.437,541.012,538.464,0.0
52276.0,STARLINK-3778,PAYLOAD,2022-11-07 21:56:06,15.08841822,0.0001717,53.2172,175.9388,44.714,315.399,9.9835e-05,1.301e-05,0.0,0 STARLINK-3778,1 52276U 22041R   22311.91396578  .00001301  00000-0  99835-4 0  9991,2 52276  53.2172 175.9388 0001717  44.7140 315.3990 15.08841822 31745,6917.875,95.437,540.928,538.552,0.0
52276.0,STARLINK-3778,PAYLOAD,2022-11-08 07:28:25,15.08851167,0.0001842,53.2168,174.1546,48.9987,311.1164,0.00024256,3.576e-05,0.0,0 STARLINK-3778,1 52276U 22041R   22312.31140064  .00003576  00000-0  24256-3 0  9993,2 52276  53.2168 174.1546 0001842  48.9987 311.1164 15.08851167 31808,6917.846,95.437,540.986,538.437,0.0
52276.0,STARLINK-3778,PAYLOAD,2022-11-09 20:02:17,15.08842349,0.0001875,53.2157,167.3139,30.8336,329.2766,1.5080999999999992e-05,-4.8e-07,0.0,0 STARLINK-3778,1 52276U 22041R   22313.83492371 -.00000048  00000-0  15081-4 0  9991,2 52276  53.2157 167.3139 0001875  30.8336 329.2766 15.08842349 32038,6917.873000000001,95.437,541.035,538.441,0.0
52276.0,STARLINK-3778,PAYLOAD,2022-11-09 21:37:40,15.08832611,0.0002055,53.2182,167.0137,26.9631,333.1467,-0.00017897,-3.135e-05,0.0,0 STARLINK-3778,1 52276U 22041R   22313.90116513 -.00003135  00000-0 -17897-3 0  9997,2 52276  53.2182 167.0137 0002055  26.9631 333.1467 15.08832611 30824,6917.903,95.438,541.19,538.346,0.0
52276.0,STARLINK-3778,PAYLOAD,2022-11-10 00:48:27,15.08825348,0.0002024,53.2161,166.4229,54.1257,305.9923,-0.00024108,-4.121e-05,0.0,0 STARLINK-3778,1 52276U 22041R   22314.03365180 -.00004121  00000-0 -24108-3 0  9997,2 52276  53.2161 166.4229 0002024  54.1257 305.9923 15.08825348 32060,6917.925,95.438,541.19,538.39,0.0
52276.0,STARLINK-3778,PAYLOAD,2022-11-10 13:31:33,15.08826913,0.0003076,53.2161,164.0436,60.8296,299.3003,-0.00022472,-3.862e-05,0.0,0 STARLINK-3778,1 52276U 22041R   22314.56358020 -.00003862  00000-0 -22472-3 0  9993,2 52276  53.2161 164.0436 0003076  60.8296 299.3003 15.08826913 30926,6917.92,95.438,541.913,537.6569999999998,0.0
52276.0,STARLINK-3778,PAYLOAD,2022-11-10 19:53:05,15.0880541,0.0001855,53.2161,162.8542,47.3526,312.7622,0.00041678,6.345e-05,0.0,0 STARLINK-3778,1 52276U 22041R   22314.82854032  .00006345  00000-0  41678-3 0  9992,2 52276  53.2161 162.8542 0001855  47.3526 312.7622 15.08805410 30969,6917.986,95.44,541.134,538.568,0.0
52276.0,STARLINK-3778,PAYLOAD,2022-11-11 13:22:21,15.08817041,0.0001839,53.216,159.5833,48.61,311.505,0.00048433,7.424e-05,0.0,0 STARLINK-3778,1 52276U 22041R   22315.55719026  .00007424  00000-0  48433-3 0  9991,2 52276  53.2160 159.5833 0001839  48.6100 311.5050 15.08817041 32291,6917.951,95.439,541.0880000000002,538.543,0.0
52276.0,STARLINK-3778,PAYLOAD,2022-11-11 21:19:16,15.08833779,0.000186,53.2156,158.0964,48.4641,311.6511,0.00053791,8.282e-05,0.0,0 STARLINK-3778,1 52276U 22041R   22315.88838938  .00008282  00000-0  53791-3 0  9997,2 52276  53.2156 158.0964 0001860  48.4641 311.6511 15.08833779 31127,6917.899,95.438,541.0509999999998,538.4780000000002,0.0
52276.0,STARLINK-3778,PAYLOAD,2022-11-12 02:05:26,15.08843179,0.0001836,53.2151,157.2045,47.7199,312.3948,0.00056239,8.675e-05,0.0,0 STARLINK-3778,1 52276U 22041R   22316.08710742  .00008675  00000-0  56239-3 0  9998,2 52276  53.2151 157.2045 0001836  47.7199 312.3948 15.08843179 32371,6917.871,95.437,541.006,538.466,0.0
52276.0,STARLINK-3778,PAYLOAD,2022-11-12 13:13:07,15.08849069,0.0001867,53.2152,155.1228,48.0325,312.0826,0.00051199,7.872e-05,0.0,0 STARLINK-3778,1 52276U 22041R   22316.55078568  .00007872  00000-0  51199-3 0  9991,2 52276  53.2152 155.1228 0001867  48.0325 312.0826 15.08849069 31220,6917.853,95.437,541.009,538.4259999999998,0.0
52276.0,STARLINK-3778,PAYLOAD,2022-11-12 19:34:40,15.088540300000002,0.0001901,53.2154,153.9334,48.2933,311.8222,0.00051817,7.971e-05,0.0,0 STARLINK-3778,1 52276U 22041R   22316.81574293  .00007971  00000-0  51817-3 0  9993,2 52276  53.2154 153.9334 0001901  48.2933 311.8222 15.08854030 31267,6917.8380000000025,95.437,541.018,538.387,0.0
52276.0,STARLINK-3778,PAYLOAD,2022-11-13 00:20:49,15.08857165,0.0001924,53.2154,153.0414,48.6156,311.5001,0.00050684,7.791e-05,0.0,0 STARLINK-3778,1 52276U 22041R   22317.01446069  .00007791  00000-0  50684-3 0  9996,2 52276  53.2154 153.0414 0001924  48.6156 311.5001 15.08857165 31290,6917.828,95.436,541.024,538.362,0.0
52276.0,STARLINK-3778,PAYLOAD,2022-11-13 19:25:26,15.08848785,0.0001952,53.2161,149.47299999999996,49.8504,310.2658,0.00011999,1.622e-05,0.0,0 STARLINK-3778,1 52276U 22041R   22317.80933783  .00001622  00000-0  11999-3 0  9990,2 52276  53.2161 149.4730 0001952  49.8504 310.2658 15.08848785 32630,6917.854,95.437,541.069,538.368,0.0
